*******************************************************************************
Ephemeris / WWW_USER Mon Mar 24 08:20:26 2025 Pasadena, USA      / Horizons    
*******************************************************************************
Target body name: (2018 VA2)                      {source: JPL#8}
Center body name: Earth (399)                     {source: DE441}
Center-site name: Mauna Kea
*******************************************************************************
Start time      : A.D. 2018-Dec-20 03:57:00.0000 UT      
Stop  time      : A.D. 2018-Dec-20 16:41:00.0000 UT      
Step-size       : 1 minutes
*******************************************************************************
Target pole/equ : undefined
Target radii    : undefined                                                    
Center geodetic : 204.5278, 19.8260847, 4.21024   {E-lon(deg),Lat(deg),Alt(km)}
Center cylindric: 204.5278, 6006.35451, 2151.0229 {E-lon(deg),Dxy(km),Dz(km)}
Center pole/equ : ITRF93                          {East-longitude positive}
Center radii    : 6378.137, 6378.137, 6356.752 km {Equator_a, b, pole_c}       
Target primary  : Sun
Vis. interferer : MOON (R_eq= 1737.400) km        {source: DE441}
Rel. light bend : Sun                             {source: DE441}
Rel. lght bnd GM: 1.3271E+11 km^3/s^2                                          
Small-body perts: Yes                             {source: SB441-N16}
Atmos refraction: NO (AIRLESS)
RA format       : HMS
Time format     : CAL 
Calendar mode   : Mixed Julian/Gregorian
RTS-only print  : NO       
EOP file        : eop.250321.p250617                                           
EOP coverage    : DATA-BASED 1962-JAN-20 TO 2025-MAR-21. PREDICTS-> 2025-JUN-16
Units conversion: 1 au= 149597870.700 km, c= 299792.458 km/s, 1 day= 86400.0 s 
Table cut-offs 1: Elevation (-90.0deg=NO ),Airmass (>38.000=NO), Daylight (YES)
Table cut-offs 2: Solar elongation (  0.0,180.0=NO ),Local Hour Angle( 0.0=NO )
Table cut-offs 3: RA/DEC angular rate (     0.0=NO )                           
*******************************************************************************
Initial IAU76/J2000 heliocentric ecliptic osculating elements (au, days, deg.):
  EPOCH=  2458428.5 ! 2018-Nov-06.00 (TDB)         Residual RMS= .39675        
   EC= .3242664208426159   QR= .935847567628844    TP= 2458464.9625425939      
   OM= 226.0068906557846   W=  220.7446970607937   IN= 3.947636678272312       
  Equivalent ICRF heliocentric cartesian coordinates (au, au/d):
   X= 7.314601530918681E-01  Y= 6.289465658343808E-01  Z= 2.763726037901882E-01
  VX=-1.554701504922309E-02 VY= 1.109318211007817E-02 VZ= 3.366540373951610E-03
Asteroid physical parameters (km, seconds, rotational period in hours):        
   GM= n.a.                RAD= n.a.               ROTPER= n.a.                
   H= 27.08                G= .150                 B-V= n.a.                   
                           ALBEDO= n.a.            STYP= n.a.                  
*******************************************************************************
 Date__(UT)__HR:MN     R.A._________(ICRF)_________DEC
******************************************************
$$SOE
 2018-Dec-20 08:03  m  12 51 17.332620 -25 26 48.72910
 2018-Dec-20 08:04  m  12 51 17.408176 -25 26 48.96703
 2018-Dec-20 08:05  m  12 51 17.483683 -25 26 49.20528
 2018-Dec-20 08:06  m  12 51 17.559141 -25 26 49.44386
 2018-Dec-20 08:07  m  12 51 17.634548 -25 26 49.68276
 2018-Dec-20 08:08  m  12 51 17.709906 -25 26 49.92198
 2018-Dec-20 08:09  m  12 51 17.785213 -25 26 50.16153
 2018-Dec-20 08:10  m  12 51 17.860469 -25 26 50.40139
 2018-Dec-20 08:11  m  12 51 17.935675 -25 26 50.64157
 2018-Dec-20 08:12  m  12 51 18.010830 -25 26 50.88207
 2018-Dec-20 08:13  m  12 51 18.085933 -25 26 51.12289
 2018-Dec-20 08:14  m  12 51 18.160985 -25 26 51.36402
 2018-Dec-20 08:15  m  12 51 18.235985 -25 26 51.60546
 2018-Dec-20 08:16  m  12 51 18.310933 -25 26 51.84721
 2018-Dec-20 08:17  m  12 51 18.385829 -25 26 52.08928
 2018-Dec-20 08:18  m  12 51 18.460673 -25 26 52.33165
 2018-Dec-20 08:19  m  12 51 18.535464 -25 26 52.57433
 2018-Dec-20 08:20  m  12 51 18.610201 -25 26 52.81732
 2018-Dec-20 08:21  m  12 51 18.684886 -25 26 53.06061
 2018-Dec-20 08:22  m  12 51 18.759518 -25 26 53.30420
 2018-Dec-20 08:23  m  12 51 18.834096 -25 26 53.54810
 2018-Dec-20 08:24  m  12 51 18.908620 -25 26 53.79230
 2018-Dec-20 08:25  m  12 51 18.983090 -25 26 54.03679
 2018-Dec-20 08:26  m  12 51 19.057505 -25 26 54.28159
 2018-Dec-20 08:27  m  12 51 19.131867 -25 26 54.52668
 2018-Dec-20 08:28  m  12 51 19.206173 -25 26 54.77207
 2018-Dec-20 08:29  m  12 51 19.280425 -25 26 55.01775
 2018-Dec-20 08:30  m  12 51 19.354622 -25 26 55.26372
 2018-Dec-20 08:31  m  12 51 19.428763 -25 26 55.50999
 2018-Dec-20 08:32  m  12 51 19.502849 -25 26 55.75654
 2018-Dec-20 08:33  m  12 51 19.576879 -25 26 56.00338
 2018-Dec-20 08:34  m  12 51 19.650853 -25 26 56.25051
 2018-Dec-20 08:35  m  12 51 19.724770 -25 26 56.49792
 2018-Dec-20 08:36  m  12 51 19.798632 -25 26 56.74562
 2018-Dec-20 08:37  m  12 51 19.872436 -25 26 56.99360
 2018-Dec-20 08:38  m  12 51 19.946184 -25 26 57.24186
 2018-Dec-20 08:39  m  12 51 20.019875 -25 26 57.49040
 2018-Dec-20 08:40  m  12 51 20.093509 -25 26 57.73922
 2018-Dec-20 08:41  m  12 51 20.167085 -25 26 57.98831
 2018-Dec-20 08:42  m  12 51 20.240604 -25 26 58.23768
 2018-Dec-20 08:43  m  12 51 20.314064 -25 26 58.48732
 2018-Dec-20 08:44  m  12 51 20.387467 -25 26 58.73724
 2018-Dec-20 08:45  m  12 51 20.460811 -25 26 58.98742
 2018-Dec-20 08:46  m  12 51 20.534097 -25 26 59.23788
 2018-Dec-20 08:47  m  12 51 20.607324 -25 26 59.48860
 2018-Dec-20 08:48  m  12 51 20.680493 -25 26 59.73959
 2018-Dec-20 08:49  m  12 51 20.753602 -25 26 59.99084
 2018-Dec-20 08:50  m  12 51 20.826652 -25 27 00.24236
 2018-Dec-20 08:51  m  12 51 20.899643 -25 27 00.49413
 2018-Dec-20 08:52  m  12 51 20.972574 -25 27 00.74617
 2018-Dec-20 08:53  m  12 51 21.045445 -25 27 00.99846
 2018-Dec-20 08:54  m  12 51 21.118256 -25 27 01.25102
 2018-Dec-20 08:55  m  12 51 21.191007 -25 27 01.50382
 2018-Dec-20 08:56  m  12 51 21.263698 -25 27 01.75688
 2018-Dec-20 08:57  m  12 51 21.336328 -25 27 02.01020
 2018-Dec-20 08:58  m  12 51 21.408897 -25 27 02.26376
 2018-Dec-20 08:59  m  12 51 21.481405 -25 27 02.51757
 2018-Dec-20 09:00  m  12 51 21.553852 -25 27 02.77163
 2018-Dec-20 09:01  m  12 51 21.626238 -25 27 03.02594
 2018-Dec-20 09:02  m  12 51 21.698562 -25 27 03.28049
 2018-Dec-20 09:03  m  12 51 21.770825 -25 27 03.53528
 2018-Dec-20 09:04  m  12 51 21.843025 -25 27 03.79032
 2018-Dec-20 09:05  m  12 51 21.915164 -25 27 04.04559
 2018-Dec-20 09:06  m  12 51 21.987240 -25 27 04.30111
 2018-Dec-20 09:07  m  12 51 22.059254 -25 27 04.55685
 2018-Dec-20 09:08  m  12 51 22.131206 -25 27 04.81284
 2018-Dec-20 09:09  m  12 51 22.203095 -25 27 05.06906
 2018-Dec-20 09:10  m  12 51 22.274920 -25 27 05.32550
 2018-Dec-20 09:11  m  12 51 22.346683 -25 27 05.58218
 2018-Dec-20 09:12  m  12 51 22.418382 -25 27 05.83909
 2018-Dec-20 09:13  m  12 51 22.490018 -25 27 06.09622
 2018-Dec-20 09:14  m  12 51 22.561591 -25 27 06.35358
 2018-Dec-20 09:15  m  12 51 22.633100 -25 27 06.61116
 2018-Dec-20 09:16  m  12 51 22.704544 -25 27 06.86897
 2018-Dec-20 09:17  m  12 51 22.775925 -25 27 07.12699
 2018-Dec-20 09:18  m  12 51 22.847241 -25 27 07.38523
 2018-Dec-20 09:19  m  12 51 22.918493 -25 27 07.64369
 2018-Dec-20 09:20  m  12 51 22.989681 -25 27 07.90237
 2018-Dec-20 09:21  m  12 51 23.060803 -25 27 08.16126
 2018-Dec-20 09:22  m  12 51 23.131861 -25 27 08.42036
 2018-Dec-20 09:23  m  12 51 23.202854 -25 27 08.67967
 2018-Dec-20 09:24  m  12 51 23.273781 -25 27 08.93919
 2018-Dec-20 09:25  m  12 51 23.344644 -25 27 09.19891
 2018-Dec-20 09:26  m  12 51 23.415440 -25 27 09.45885
 2018-Dec-20 09:27  m  12 51 23.486171 -25 27 09.71898
 2018-Dec-20 09:28  m  12 51 23.556836 -25 27 09.97932
 2018-Dec-20 09:29  m  12 51 23.627436 -25 27 10.23986
 2018-Dec-20 09:30  m  12 51 23.697969 -25 27 10.50059
 2018-Dec-20 09:31  m  12 51 23.768436 -25 27 10.76152
 2018-Dec-20 09:32  m  12 51 23.838836 -25 27 11.02265
 2018-Dec-20 09:33  m  12 51 23.909170 -25 27 11.28397
 2018-Dec-20 09:34  m  12 51 23.979437 -25 27 11.54548
 2018-Dec-20 09:35  m  12 51 24.049638 -25 27 11.80719
 2018-Dec-20 09:36  m  12 51 24.119771 -25 27 12.06908
 2018-Dec-20 09:37  m  12 51 24.189838 -25 27 12.33116
 2018-Dec-20 09:38  m  12 51 24.259837 -25 27 12.59342
 2018-Dec-20 09:39  m  12 51 24.329769 -25 27 12.85586
 2018-Dec-20 09:40  m  12 51 24.399633 -25 27 13.11849
 2018-Dec-20 09:41  m  12 51 24.469429 -25 27 13.38130
 2018-Dec-20 09:42  m  12 51 24.539158 -25 27 13.64428
 2018-Dec-20 09:43  m  12 51 24.608819 -25 27 13.90744
 2018-Dec-20 09:44  m  12 51 24.678412 -25 27 14.17078
 2018-Dec-20 09:45  m  12 51 24.747937 -25 27 14.43428
 2018-Dec-20 09:46  m  12 51 24.817393 -25 27 14.69796
 2018-Dec-20 09:47  m  12 51 24.886781 -25 27 14.96181
 2018-Dec-20 09:48  m  12 51 24.956101 -25 27 15.22582
 2018-Dec-20 09:49  m  12 51 25.025352 -25 27 15.49000
 2018-Dec-20 09:50  m  12 51 25.094534 -25 27 15.75435
 2018-Dec-20 09:51  m  12 51 25.163647 -25 27 16.01886
 2018-Dec-20 09:52  m  12 51 25.232691 -25 27 16.28352
 2018-Dec-20 09:53  m  12 51 25.301666 -25 27 16.54835
 2018-Dec-20 09:54  m  12 51 25.370572 -25 27 16.81333
 2018-Dec-20 09:55  m  12 51 25.439408 -25 27 17.07847
 2018-Dec-20 09:56  m  12 51 25.508175 -25 27 17.34376
 2018-Dec-20 09:57  m  12 51 25.576872 -25 27 17.60920
 2018-Dec-20 09:58  m  12 51 25.645500 -25 27 17.87479
 2018-Dec-20 09:59  m  12 51 25.714057 -25 27 18.14053
 2018-Dec-20 10:00  m  12 51 25.782545 -25 27 18.40642
 2018-Dec-20 10:01  m  12 51 25.850963 -25 27 18.67245
 2018-Dec-20 10:02  m  12 51 25.919310 -25 27 18.93862
 2018-Dec-20 10:03  m  12 51 25.987588 -25 27 19.20493
 2018-Dec-20 10:04  m  12 51 26.055795 -25 27 19.47139
 2018-Dec-20 10:05  m  12 51 26.123931 -25 27 19.73798
